IRIDIUM 106             
1 41917U 17003A   25186.55525731  .00000038  00000+0  64730-5 0  9993
2 41917  86.3961 233.3271 0001963  83.3076 276.8343 14.34217693443525
IRIDIUM 103             
1 41918U 17003B   25186.61234208  .00000069  00000+0  17591-4 0  9993
2 41918  86.3960 233.2040 0002775  83.2025 276.9486 14.34217951443552
IRIDIUM 109             
1 41919U 17003C   25186.61868430  .00000032  00000+0  43663-5 0  9994
2 41919  86.3961 233.2552 0002505  93.1535 266.9947 14.34217641443523
IRIDIUM 102             
1 41920U 17003D   25186.58697044  .00000085  00000+0  23367-4 0  9999
2 41920  86.3959 233.1991 0002354  96.0358 264.1106 14.34217774443608
IRIDIUM 105             
1 41921U 17003E   25186.55770412  .00000150  00000+0  46496-4 0  9999
2 41921  86.3983 201.6838 0002468  87.2525 272.8954 14.34217194445458
IRIDIUM 104             
1 41922U 17003F   25186.59965632  .00000148  00000+0  45776-4 0  9991
2 41922  86.3961 233.2315 0002751  93.5584 266.5927 14.34217565443591
IRIDIUM 114             
1 41923U 17003G   25186.60599866  .00000032  00000+0  45236-5 0  9990
2 41923  86.3961 233.2132 0002464  86.6196 273.5281 14.34217734443579
IRIDIUM 108             
1 41924U 17003H   25186.56451913  .00000059  00000+0  14146-4 0  9990
2 41924  86.3977 201.5811 0002114  90.9729 269.1709 14.34217734445423
